PNR01 ? ? ? S ? 20190823 2222 10.546444 GAU 0.02 0.0 0.0 0.0 1.0 
PNR01 ? ? ? S ? 20190823 2222 10.553889 GAU 0.02 0.0 0.0 0.0 1.0 
PNR01 ? ? ? P ? 20190823 2222 09.805676 GAU 0.02 0.0 0.0 0.0 1.0 
PNR02 ? ? ? S ? 20190823 2222 10.490607 GAU 0.02 0.0 0.0 0.0 1.0 
PNR02 ? ? ? S ? 20190823 2222 10.453383 GAU 0.02 0.0 0.0 0.0 1.0 
PNR02 ? ? ? P ? 20190823 2222 09.831733 GAU 0.02 0.0 0.0 0.0 1.0 
PNR3A ? ? ? S ? 20190823 2222 10.464550 GAU 0.02 0.0 0.0 0.0 1.0 
PNR3A ? ? ? S ? 20190823 2222 10.460828 GAU 0.02 0.0 0.0 0.0 1.0 
PNR3A ? ? ? P ? 20190823 2222 09.779619 GAU 0.02 0.0 0.0 0.0 1.0 
PNR3B ? ? ? S ? 20190823 2222 10.378934 GAU 0.02 0.0 0.0 0.0 1.0 
PNR3B ? ? ? S ? 20190823 2222 10.371489 GAU 0.02 0.0 0.0 0.0 1.0 
PNR3B ? ? ? P ? 20190823 2222 09.764729 GAU 0.02 0.0 0.0 0.0 1.0 
PNR04 ? ? ? S ? 20190823 2222 10.684175 GAU 0.02 0.0 0.0 0.0 1.0 
PNR04 ? ? ? S ? 20190823 2222 10.654395 GAU 0.02 0.0 0.0 0.0 1.0 
PNR04 ? ? ? P ? 20190823 2222 09.924794 GAU 0.02 0.0 0.0 0.0 1.0 
PNR05 ? ? ? S ? 20190823 2222 10.974527 GAU 0.02 0.0 0.0 0.0 1.0 
PNR05 ? ? ? S ? 20190823 2222 10.914967 GAU 0.02 0.0 0.0 0.0 1.0 
PNR05 ? ? ? P ? 20190823 2222 10.81138 GAU 0.02 0.0 0.0 0.0 1.0 
PNR06 ? ? ? S ? 20190823 2222 10.840518 GAU 0.02 0.0 0.0 0.0 1.0 
PNR06 ? ? ? S ? 20190823 2222 10.829351 GAU 0.02 0.0 0.0 0.0 1.0 
PNR06 ? ? ? P ? 20190823 2222 10.25301 GAU 0.02 0.0 0.0 0.0 1.0 
PNR07 ? ? ? S ? 20190823 2222 10.635783 GAU 0.02 0.0 0.0 0.0 1.0 
PNR07 ? ? ? S ? 20190823 2222 10.620893 GAU 0.02 0.0 0.0 0.0 1.0 
PNR07 ? ? ? P ? 20190823 2222 09.857790 GAU 0.02 0.0 0.0 0.0 1.0 
